{
  "norad_id": 36590,
  "name": "BEIDOU-2 G3",
  "history": [
    {
      "epoch": "2026-03-28T22:00:31.536288Z",
      "apogee_km": 35820.52956251082,
      "perigee_km": 35752.21631009242,
      "latitude_deg": 0.4479201276256813,
      "longitude_deg": 79.63999361065696,
      "height_km": 35816.18242867527,
      "semi_major_axis_km": 42164.50993630163,
      "eccentricity": 0.00081008,
      "inclination_deg": 4.3262,
      "raan_deg": 61.8217,
      "arg_perigee_deg": 326.9611,
      "mean_anomaly_deg": 207.3244,
      "mean_motion_rev_day": 1.00272577
    },
    {
      "epoch": "2026-03-29T01:25:56.758080Z",
      "apogee_km": 35820.59167254685,
      "perigee_km": 35752.16709535897,
      "latitude_deg": -3.0767304357216334,
      "longitude_deg": 79.49323587707005,
      "height_km": 35792.925902608695,
      "semi_major_axis_km": 42164.51638395291,
      "eccentricity": 0.0008114,
      "inclination_deg": 4.3266,
      "raan_deg": 61.8213,
      "arg_perigee_deg": 327.057,
      "mean_anomaly_deg": 258.7248,
      "mean_motion_rev_day": 1.00272554
    },
    {
      "epoch": "2026-03-30T01:23:22.561728Z",
      "apogee_km": 35820.776322614125,
      "perigee_km": 35752.014403236666,
      "latitude_deg": -3.0950154232239044,
      "longitude_deg": 79.4944430041173,
      "height_km": 35792.950550852205,
      "semi_major_axis_km": 42164.5323629254,
      "eccentricity": 0.0008154,
      "inclination_deg": 4.3291,
      "raan_deg": 61.8189,
      "arg_perigee_deg": 327.3568,
      "mean_anomaly_deg": 258.7717,
      "mean_motion_rev_day": 1.00272497
    }
  ]
}